STARLINK-1246           
1 45235U 20012BK  26068.29976906  .00005862  00000+0  20979-3 0  9994
2 45235  53.1615  41.0601 0001484  96.3755 263.7415 15.30215288334919
FLOCK 4G-13             
1 62621U 25009N   26068.70638971  .00053076  00000+0  16695-2 0  9995
2 62621  97.4019 151.0918 0003801 292.7207  67.3633 15.32770015 63700
